satname,norad_id,inclination_deg,eccentricity,mean_motion_rev_per_day,perigee_km,apogee_km,l1,l2
STARLINK-1482,45773,53.0552,0.0001282,15.06409916,546.2933412041439,548.0689927821604,1 45773U 20038AV  25362.72757235  .00002834  00000+0  20901-3 0  9996,2 45773  53.0552 155.1781 0001282  87.6862 272.4273 15.06409916306069
STARLINK-1496,45780,53.0531,0.000121,15.31226337,471.32343893646885,472.9812089528632,1 45780U 20038BC  25362.91668980  .01741215  00000+0  51300-1 0  9992,2 45780  53.0531 153.1804 0001210 101.1803 256.5260 15.31226337  5782
STARLINK-1497,45781,53.0322,0.0004072,15.74523675,343.2488979450327,348.72502449905187,1 45781U 20038BD  25362.91668980  .00230596  00000+0  15135-2 0  9994,2 45781  53.0322  75.8800 0004072   7.6294 279.9647 15.74523675  5959
STARLINK-1510,45784,53.0187,0.0007184,16.06298334,252.25073601089662,261.78412589729214,1 45784U 20038BG  25362.66891632  .00701259  25802-3  91938-3 0  9997,2 45784  53.0187  44.0754 0007184  14.4243 345.6993 16.06298334307614
STARLINK-1513,45786,53.0552,0.0001401,15.06396267,546.2527561333845,548.1932420051244,1 45786U 20038BJ  25362.72389556 -.00001857  00000+0 -10578-3 0  9992,2 45786  53.0552 155.1957 0001401  88.4891 271.6258 15.06396267306060
STARLINK-1522,46027,53.0594,0.0001752,15.06416954,545.9462848936673,548.3729088212067,1 46027U 20055A   25362.50548041  .00002504  00000+0  18687-3 0  9999,2 46027  53.0594  86.1781 0001752  95.3434 264.7755 15.06416954298153
STARLINK-1523,46028,53.0564,0.0001202,15.064053,546.3628893050691,548.0277391934151,1 46028U 20055B   25362.45389320  .00000079  00000+0  24220-4 0  9993,2 46028  53.0564  86.4131 0001202  71.1715 288.9404 15.06405300298160
STARLINK-1526,46029,53.0547,0.0001935,15.06429104,545.7823221200051,548.4623974922488,1 46029U 20055C   25362.64555534  .00014390  00000+0  98220-3 0  9998,2 46029  53.0547  85.5460 0001935  82.4161 277.7047 15.06429104298189
STARLINK-1555,46032,53.0556,0.0001264,15.0641568,546.2881434300798,548.0388593968373,1 46032U 20055F   25362.49811178  .00003401  00000+0  24703-3 0  9990,2 46032  53.0556  86.2094 0001264  92.8519 267.2615 15.06415680298168
STARLINK-1556,46033,53.0554,0.0001481,15.06418401,546.1295263283728,548.1807978667866,1 46033U 20055G   25362.28064815  .00014000  00000+0  95640-3 0  9991,2 46033  53.0554  87.1857 0001481 102.8510 257.2645 15.06418401298108
STARLINK-1557,46034,53.0558,0.0001101,15.06400876,546.4463925451146,547.9713537063762,1 46034U 20055H   25362.48337487 -.00000838  00000+0 -37393-4 0  9990,2 46034  53.0558  86.2745 0001101  91.4666 268.6450 15.06400876298133
STARLINK-1558,46035,53.0561,0.0001219,15.06416095,546.3180355445083,548.0064234966649,1 46035U 20055J   25362.49074007  .00003673  00000+0  26525-3 0  9990,2 46035  53.0561  86.2452 0001219  97.6289 262.4838 15.06416095298167
STARLINK-1560,46036,53.0548,0.0001348,15.0641939,546.2186020435283,548.0856599932522,1 46036U 20055K   25362.60868412  .00004475  00000+0  31896-3 0  9993,2 46036  53.0548  85.7154 0001348  91.1133 269.0011 15.06419390298185
STARLINK-1567,46038,53.0532,9.84e-05,15.06418554,546.4732444815927,547.8361418868108,1 46038U 20055M   25362.42073481  .00006136  00000+0  43028-3 0  9995,2 46038  53.0532  86.5562 0000984  94.2001 265.9101 15.06418554298147
STARLINK-1569,46039,53.054,0.0001217,15.06419741,546.3082477209018,547.9938628335558,1 46039U 20055N   25362.56077944  .00012042  00000+0  82546-3 0  9990,2 46039  53.0540  85.9281 0001217  79.2207 280.8919 15.06419741298163
STARLINK-1582,46043,53.0565,0.0001471,15.06426795,546.1107296469554,548.1481430325266,1 46043U 20055S   25362.63448250  .00001645  00000+0  12921-3 0  9992,2 46043  53.0565  85.5970 0001471  92.7370 267.3787 15.06426795298170
STARLINK-1591,46045,53.0559,0.0001428,15.06428523,546.1352131398298,548.1130677215369,1 46045U 20055U   25362.52760479  .00014128  00000+0  96471-3 0  9994,2 46045  53.0559  86.0786 0001428  96.7270 263.3882 15.06428523298141
STARLINK-1524,46047,53.0555,0.0001356,15.0642158,546.2063508398942,548.0844874319628,1 46047U 20055W   25362.61328902  .00004000  00000+0  28708-3 0  9993,2 46047  53.0555  75.6916 0001356 105.3110 254.8029 15.06421580298311
STARLINK-1527,46048,53.0558,0.0001077,15.06414369,546.4216640761133,547.9133746695861,1 46048U 20055X   25362.47691891  .00001494  00000+0  11912-3 0  9991,2 46048  53.0558  76.3057 0001077  86.6583 273.4529 15.06414369298278
STARLINK-1540,46051,53.0557,0.0001098,15.06420693,546.3877412914962,547.9085339077137,1 46051U 20055AA  25362.51008659  .00001298  00000+0  10592-3 0  9999,2 46051  53.0557  76.1563 0001098  91.0991 269.0124 15.06420693298311
STARLINK-1541,46052,53.0555,0.0001539,15.06413157,546.105428984526,548.237038858927,1 46052U 20055AB  25362.49534666  .00002556  00000+0  19034-3 0  9997,2 46052  53.0555  76.2235 0001539  89.7990 270.3175 15.06413157298273
STARLINK-1543,46053,53.0567,0.0001477,15.06420217,546.1267316077392,548.1724612683274,1 46053U 20055AC  25362.49902879  .00002199  00000+0  16637-3 0  9992,2 46053  53.0567  76.2063 0001477  90.5300 269.5858 15.06420217298309
STARLINK-1548,46054,53.0558,9.89e-05,15.06402577,546.518743624436,547.8885760069479,1 46054U 20055AD  25362.50643035 -.00003613  00000+0 -22375-3 0  9991,2 46054  53.0558  76.1739 0000989  97.7568 262.3534 15.06402577298302
STARLINK-1554,46055,53.0543,0.0001097,15.06436955,546.3386001889248,547.8579968134172,1 46055U 20055AE  25362.62436102  .00014053  00000+0  95945-3 0  9991,2 46055  53.0543  75.6415 0001097  83.9813 276.1301 15.06436955298327
STARLINK-1564,46058,53.0567,0.0001501,15.0641024,546.1406838830726,548.219664098704,1 46058U 20055AH  25362.43643321  .00001833  00000+0  14187-3 0  9997,2 46058  53.0567  76.9525 0001501  74.3810 285.7345 15.06410240298281
STARLINK-1570,46059,53.0561,0.0001632,15.06415305,546.0344414853507,548.2948599441452,1 46059U 20055AJ  25362.59855083  .00002527  00000+0  18842-3 0  9998,2 46059  53.0561  75.7629 0001632 106.9796 253.1372 15.06415305298273
STARLINK-1572,46060,53.0545,0.0001291,15.06419573,546.2575154074275,548.0456249162444,1 46060U 20055AK  25362.46218533  .00019063  00000+0  12945-2 0  9999,2 46060  53.0545  76.3705 0001291  80.3303 279.7831 15.06419573298263
STARLINK-1573,46061,53.0569,0.0001374,15.06412697,546.2211061902626,548.1241812803619,1 46061U 20055AL  25362.45849305  .00002767  00000+0  20453-3 0  9993,2 46061  53.0569  76.4257 0001374  92.7050 267.4096 15.06412697298291
